[{"OBJECT_NAME":"SHIYAN-6 01 (SY-6 01)","OBJECT_ID":"2018-094B","EPOCH":"2026-03-09T23:04:36.967872","MEAN_MOTION":15.28649156,"ECCENTRICITY":0.00144834,"INCLINATION":97.3669,"RA_OF_ASC_NODE":84.0964,"ARG_OF_PERICENTER":135.6758,"MEAN_ANOMALY":224.5644,"EPHEMERIS_TYPE":0,"CLASSIFICATION_TYPE":"U","NORAD_CAT_ID":43711,"ELEMENT_SET_NO":999,"REV_AT_EPOCH":40632,"BSTAR":0.00024768444,"MEAN_MOTION_DOT":6.847e-5,"MEAN_MOTION_DDOT":0},{"OBJECT_NAME":"STARLINK-35019","OBJECT_ID":"2025-198X","EPOCH":"2026-03-09T22:15:22.550976","MEAN_MOTION":15.30209503,"ECCENTRICITY":9.989e-5,"INCLINATION":53.1569,"RA_OF_ASC_NODE":270.0896,"ARG_OF_PERICENTER":204.1444,"MEAN_ANOMALY":155.951,"EPHEMERIS_TYPE":0,"CLASSIFICATION_TYPE":"U","NORAD_CAT_ID":65513,"ELEMENT_SET_NO":999,"REV_AT_EPOCH":2865,"BSTAR":0.00093261601,"MEAN_MOTION_DOT":0.00027372,"MEAN_MOTION_DDOT":0}]
